CCSDS_OMM_VERS = 2.0
CREATION_DATE  = 
ORIGINATOR     = 

OBJECT_NAME    = TITAN 4B R/B
OBJECT_ID      = 2000-047B
CENTER_NAME    = EARTH
REF_FRAME      = TEME
TIME_SYSTEM    = UTC
MEAN_ELEMENT_THEORY = SGP/SGP4

EPOCH          = 2025-11-12T17:01:31.684800
MEAN_MOTION    = 15.08463441
ECCENTRICITY   = .0041717
INCLINATION    = 67.9917
RA_OF_ASC_NODE = 9.1763
ARG_OF_PERICENTER = 179.7410
MEAN_ANOMALY   = 180.3768

EPHEMERIS_TYPE = 0
CLASSIFICATION_TYPE = U
NORAD_CAT_ID   = 26474
ELEMENT_SET_NO = 999
REV_AT_EPOCH   = 37526
BSTAR          = .54855E-3
MEAN_MOTION_DOT = .8617E-4
MEAN_MOTION_DDOT = 0

CCSDS_OMM_VERS = 2.0
CREATION_DATE  = 
ORIGINATOR     = 

OBJECT_NAME    = ENVISAT
OBJECT_ID      = 2002-009A
CENTER_NAME    = EARTH
REF_FRAME      = TEME
TIME_SYSTEM    = UTC
MEAN_ELEMENT_THEORY = SGP/SGP4

EPOCH          = 2025-11-12T20:39:01.050048
MEAN_MOTION    = 14.38982662
ECCENTRICITY   = .0001298
INCLINATION    = 98.3552
RA_OF_ASC_NODE = 268.3660
ARG_OF_PERICENTER = 82.6107
MEAN_ANOMALY   = 304.1440

EPHEMERIS_TYPE = 0
CLASSIFICATION_TYPE = U
NORAD_CAT_ID   = 27386
ELEMENT_SET_NO = 999
REV_AT_EPOCH   = 24237
BSTAR          = .12424E-3
MEAN_MOTION_DOT = .341E-5
MEAN_MOTION_DDOT = 0

CCSDS_OMM_VERS = 2.0
CREATION_DATE  = 
ORIGINATOR     = 

OBJECT_NAME    = IDEFIX & ARIANE 42P R/B
OBJECT_ID      = 2002-021B
CENTER_NAME    = EARTH
REF_FRAME      = TEME
TIME_SYSTEM    = UTC
MEAN_ELEMENT_THEORY = SGP/SGP4

EPOCH          = 2025-11-12T14:03:21.290112
MEAN_MOTION    = 14.30917100
ECCENTRICITY   = .0011867
INCLINATION    = 98.5739
RA_OF_ASC_NODE = 251.6754
ARG_OF_PERICENTER = 166.9376
MEAN_ANOMALY   = 193.2116

EPHEMERIS_TYPE = 0
CLASSIFICATION_TYPE = U
NORAD_CAT_ID   = 27422
ELEMENT_SET_NO = 999
REV_AT_EPOCH   = 22727
BSTAR          = .28024E-3
MEAN_MOTION_DOT = .693E-5
MEAN_MOTION_DDOT = 0

CCSDS_OMM_VERS = 2.0
CREATION_DATE  = 
ORIGINATOR     = 

OBJECT_NAME    = AQUA
OBJECT_ID      = 2002-022A
CENTER_NAME    = EARTH
REF_FRAME      = TEME
TIME_SYSTEM    = UTC
MEAN_ELEMENT_THEORY = SGP/SGP4

EPOCH          = 2025-11-12T20:07:51.568320
MEAN_MOTION    = 14.61702699
ECCENTRICITY   = .0000813
INCLINATION    = 98.3991
RA_OF_ASC_NODE = 277.2413
ARG_OF_PERICENTER = 54.3083
MEAN_ANOMALY   = 335.8456

EPHEMERIS_TYPE = 0
CLASSIFICATION_TYPE = U
NORAD_CAT_ID   = 27424
ELEMENT_SET_NO = 999
REV_AT_EPOCH   = 25166
BSTAR          = .64201E-3
MEAN_MOTION_DOT = .315E-4
MEAN_MOTION_DDOT = 0

CCSDS_OMM_VERS = 2.0
CREATION_DATE  = 
ORIGINATOR     = 

OBJECT_NAME    = CZ-4B R/B
OBJECT_ID      = 2002-024C
CENTER_NAME    = EARTH
REF_FRAME      = TEME
TIME_SYSTEM    = UTC
MEAN_ELEMENT_THEORY = SGP/SGP4

EPOCH          = 2025-11-12T03:49:46.853184
MEAN_MOTION    = 14.14518193
ECCENTRICITY   = .00500698
INCLINATION    = 98.9047
RA_OF_ASC_NODE = 5.0310
ARG_OF_PERICENTER = 357.9635
MEAN_ANOMALY   = 66.3096

EPHEMERIS_TYPE = 0
CLASSIFICATION_TYPE = U
NORAD_CAT_ID   = 27432
ELEMENT_SET_NO = 999
REV_AT_EPOCH   = 21262
BSTAR          = .673464E-4
MEAN_MOTION_DOT = .86E-6
MEAN_MOTION_DDOT = 0

CCSDS_OMM_VERS = 2.0
CREATION_DATE  = 
ORIGINATOR     = 

OBJECT_NAME    = MIDORI II (ADEOS-II)
OBJECT_ID      = 2002-056A
CENTER_NAME    = EARTH
REF_FRAME      = TEME
TIME_SYSTEM    = UTC
MEAN_ELEMENT_THEORY = SGP/SGP4

EPOCH          = 2025-11-12T14:40:22.602144
MEAN_MOTION    = 14.29174817
ECCENTRICITY   = .0001351
INCLINATION    = 98.7588
RA_OF_ASC_NODE = 269.4174
ARG_OF_PERICENTER = 34.2594
MEAN_ANOMALY   = 325.8674

EPHEMERIS_TYPE = 0
CLASSIFICATION_TYPE = U
NORAD_CAT_ID   = 27597
ELEMENT_SET_NO = 999
REV_AT_EPOCH   = 19357
BSTAR          = .28102E-3
MEAN_MOTION_DOT = .668E-5
MEAN_MOTION_DDOT = 0

CCSDS_OMM_VERS = 2.0
CREATION_DATE  = 
ORIGINATOR     = 

OBJECT_NAME    = H-2A R/B
OBJECT_ID      = 2002-056E
CENTER_NAME    = EARTH
REF_FRAME      = TEME
TIME_SYSTEM    = UTC
MEAN_ELEMENT_THEORY = SGP/SGP4

EPOCH          = 2025-11-12T20:55:13.057824
MEAN_MOTION    = 14.33643868
ECCENTRICITY   = .0070854
INCLINATION    = 98.3021
RA_OF_ASC_NODE = 276.8255
ARG_OF_PERICENTER = 148.8483
MEAN_ANOMALY   = 231.7537

EPHEMERIS_TYPE = 0
CLASSIFICATION_TYPE = U
NORAD_CAT_ID   = 27601
ELEMENT_SET_NO = 999
REV_AT_EPOCH   = 19737
BSTAR          = .2342E-3
MEAN_MOTION_DOT = .627E-5
MEAN_MOTION_DDOT = 0

CCSDS_OMM_VERS = 2.0
CREATION_DATE  = 
ORIGINATOR     = 

OBJECT_NAME    = CZ-4B R/B
OBJECT_ID      = 2003-049C
CENTER_NAME    = EARTH
REF_FRAME      = TEME
TIME_SYSTEM    = UTC
MEAN_ELEMENT_THEORY = SGP/SGP4

EPOCH          = 2025-11-11T23:47:12.018912
MEAN_MOTION    = 14.54865093
ECCENTRICITY   = .00473288
INCLINATION    = 98.6769
RA_OF_ASC_NODE = 301.3972
ARG_OF_PERICENTER = 230.1020
MEAN_ANOMALY   = 129.6010

EPHEMERIS_TYPE = 0
CLASSIFICATION_TYPE = U
NORAD_CAT_ID   = 28059
ELEMENT_SET_NO = 999
REV_AT_EPOCH   = 16948
BSTAR          = .16296415E-3
MEAN_MOTION_DOT = .658E-5
MEAN_MOTION_DDOT = 0

CCSDS_OMM_VERS = 2.0
CREATION_DATE  = 
ORIGINATOR     = 

OBJECT_NAME    = CZ-2C R/B
OBJECT_ID      = 2004-012C
CENTER_NAME    = EARTH
REF_FRAME      = TEME
TIME_SYSTEM    = UTC
MEAN_ELEMENT_THEORY = SGP/SGP4

EPOCH          = 2025-11-12T14:33:45.772992
MEAN_MOTION    = 15.52825300
ECCENTRICITY   = .0019315
INCLINATION    = 97.7478
RA_OF_ASC_NODE = 6.7957
ARG_OF_PERICENTER = 24.1977
MEAN_ANOMALY   = 336.0178

EPHEMERIS_TYPE = 0
CLASSIFICATION_TYPE = U
NORAD_CAT_ID   = 28222
ELEMENT_SET_NO = 999
REV_AT_EPOCH   = 18604
BSTAR          = .10172E-2
MEAN_MOTION_DOT = .63833E-3
MEAN_MOTION_DDOT = 0

CCSDS_OMM_VERS = 2.0
CREATION_DATE  = 
ORIGINATOR     = 

OBJECT_NAME    = SL-16 R/B
OBJECT_ID      = 2004-021B
CENTER_NAME    = EARTH
REF_FRAME      = TEME
TIME_SYSTEM    = UTC
MEAN_ELEMENT_THEORY = SGP/SGP4

EPOCH          = 2025-11-12T20:25:39.931968
MEAN_MOTION    = 14.14572381
ECCENTRICITY   = .0006582
INCLINATION    = 70.9977
RA_OF_ASC_NODE = 117.6850
ARG_OF_PERICENTER = 230.6456
MEAN_ANOMALY   = 129.4084

EPHEMERIS_TYPE = 0
CLASSIFICATION_TYPE = U
NORAD_CAT_ID   = 28353
ELEMENT_SET_NO = 999
REV_AT_EPOCH   = 10631
BSTAR          = .18476E-3
MEAN_MOTION_DOT = .307E-5
MEAN_MOTION_DDOT = 0

CCSDS_OMM_VERS = 2.0
CREATION_DATE  = 
ORIGINATOR     = 

OBJECT_NAME    = CZ-4B R/B
OBJECT_ID      = 2004-035C
CENTER_NAME    = EARTH
REF_FRAME      = TEME
TIME_SYSTEM    = UTC
MEAN_ELEMENT_THEORY = SGP/SGP4

EPOCH          = 2025-11-12T19:28:23.600928
MEAN_MOTION    = 15.26683151
ECCENTRICITY   = .0034581
INCLINATION    = 97.3655
RA_OF_ASC_NODE = 347.5632
ARG_OF_PERICENTER = 25.7637
MEAN_ANOMALY   = 334.5314

EPHEMERIS_TYPE = 0
CLASSIFICATION_TYPE = U
NORAD_CAT_ID   = 28415
ELEMENT_SET_NO = 999
REV_AT_EPOCH   = 16206
BSTAR          = .66587E-3
MEAN_MOTION_DOT = .17733E-3
MEAN_MOTION_DDOT = 0

CCSDS_OMM_VERS = 2.0
CREATION_DATE  = 
ORIGINATOR     = 

OBJECT_NAME    = CZ-2C R/B
OBJECT_ID      = 2004-046B
CENTER_NAME    = EARTH
REF_FRAME      = TEME
TIME_SYSTEM    = UTC
MEAN_ELEMENT_THEORY = SGP/SGP4

EPOCH          = 2025-11-12T17:41:02.552640
MEAN_MOTION    = 14.26920636
ECCENTRICITY   = .014026
INCLINATION    = 98.1961
RA_OF_ASC_NODE = 233.9842
ARG_OF_PERICENTER = 140.3389
MEAN_ANOMALY   = 220.8153

EPHEMERIS_TYPE = 0
CLASSIFICATION_TYPE = U
NORAD_CAT_ID   = 28480
ELEMENT_SET_NO = 999
REV_AT_EPOCH   = 9182
BSTAR          = .14783E-3
MEAN_MOTION_DOT = .358E-5
MEAN_MOTION_DDOT = 0

